STARLINK-2741
1 18684C 21044AY  21326.17154411 -.00019182  00000-0 -12853-2 0  3267
2 18684  53.0551 287.9620 0002064  52.0841  21.1741 15.06416603    16
